start=new Date('2021-11-16T00:00:00.000Z').valueOf();
sats=[{"EPHEMERIS_TYPE":"0","OBJECT_NAME":"STARLINK-1628","PERIAPSIS":"548.443","REF_FRAME":"TEME","MEAN_MOTION":"15.05581477","PERIOD":"95.644","CLASSIFICATION_TYPE":"U","NORAD_CAT_ID":"46169","MEAN_MOTION_DOT":"0.00000342","SEMIMAJOR_AXIS":"6927.858","FILE":"3215928","MEAN_MOTION_DDOT":"0.0000000000000","RCS_SIZE":"LARGE","APOAPSIS":"551.004","COUNTRY_CODE":"US","SITE":"AFETR","MEAN_ELEMENT_THEORY":"SGP4","MEAN_ANOMALY":"282.0667","RA_OF_ASC_NODE":"186.1675","ARG_OF_PERICENTER":"78.0528","TIME_SYSTEM":"UTC","OBJECT_ID":"2020-057BE","LAUNCH_DATE":"2020-08-18","CENTER_NAME":"EARTH","REV_AT_EPOCH":"6868","TLE_LINE1":"1 46169U 20057BE  21319.88879653  .00000342  00000-0  42653-4 0  9993","TLE_LINE2":"2 46169  52.9992 186.1675 0001848  78.0528 282.0667 15.05581477 68681","BSTAR":"0.00004265300000","OBJECT_TYPE":"PAYLOAD","INCLINATION":"52.9992","EPOCH":"2021-11-15T21:19:52.020192","DECAY_DATE":null,"ECCENTRICITY":"0.00018480","ELEMENT_SET_NO":"999","GP_ID":"189838594"},{"APOAPSIS":"548.491","MEAN_ELEMENT_THEORY":"SGP4","SITE":"AFETR","MEAN_ANOMALY":"286.1037","COUNTRY_CODE":"US","ARG_OF_PERICENTER":"74.0155","RA_OF_ASC_NODE":"166.1436","MEAN_MOTION_DDOT":"0.0000000000000","FILE":"3215928","RCS_SIZE":"LARGE","MEAN_MOTION":"15.06398851","MEAN_MOTION_DOT":"0.00001181","CLASSIFICATION_TYPE":"U","PERIOD":"95.592","NORAD_CAT_ID":"46171","SEMIMAJOR_AXIS":"6925.352","OBJECT_NAME":"STARLINK-1633","EPHEMERIS_TYPE":"0","PERIAPSIS":"545.943","REF_FRAME":"TEME","GP_ID":"189838845","EPOCH":"2021-11-15T21:29:46.961952","INCLINATION":"53.0534","BSTAR":"0.00009819600000","OBJECT_TYPE":"PAYLOAD","ECCENTRICITY":"0.00018400","DECAY_DATE":null,"ELEMENT_SET_NO":"999","CENTER_NAME":"EARTH","REV_AT_EPOCH":"7024","TLE_LINE2":"2 46171  53.0534 166.1436 0001840  74.0155 286.1037 15.06398851 70249","TLE_LINE1":"1 46171U 20057BG  21319.89568243  .00001181  00000-0  98196-4 0  9992","OBJECT_ID":"2020-057BG","TIME_SYSTEM":"UTC","LAUNCH_DATE":"2020-08-18"},{"PERIOD":"95.593","CLASSIFICATION_TYPE":"U","NORAD_CAT_ID":"46172","MEAN_MOTION_DOT":"0.00000893","SEMIMAJOR_AXIS":"6925.378","MEAN_MOTION":"15.06390259","REF_FRAME":"TEME","OBJECT_NAME":"STARLINK-1635","EPHEMERIS_TYPE":"0","PERIAPSIS":"546.157","COUNTRY_CODE":"US","MEAN_ELEMENT_THEORY":"SGP4","SITE":"AFETR","MEAN_ANOMALY":"291.1428","RA_OF_ASC_NODE":"166.3842","ARG_OF_PERICENTER":"68.9729","APOAPSIS":"548.330","RCS_SIZE":"LARGE","FILE":"3215928","MEAN_MOTION_DDOT":"0.0000000000000","TLE_LINE1":"1 46172U 20057BH  21319.84407780  .00000893  00000-0  78852-4 0  9992","TLE_LINE2":"2 46172  53.0539 166.3842 0001569  68.9729 291.1428 15.06390259 70238","CENTER_NAME":"EARTH","REV_AT_EPOCH":"7023","LAUNCH_DATE":"2020-08-18","OBJECT_ID":"2020-057BH","TIME_SYSTEM":"UTC","GP_ID":"189837593","DECAY_DATE":null,"ECCENTRICITY":"0.00015690","ELEMENT_SET_NO":"999","OBJECT_TYPE":"PAYLOAD","BSTAR":"0.00007885200000","EPOCH":"2021-11-15T20:15:28.321920","INCLINATION":"53.0539"},{"MEAN_MOTION":"15.06393722","MEAN_MOTION_DOT":"-0.00000393","PERIOD":"95.593","CLASSIFICATION_TYPE":"U","NORAD_CAT_ID":"46173","SEMIMAJOR_AXIS":"6925.368","EPHEMERIS_TYPE":"0","OBJECT_NAME":"STARLINK-1640","PERIAPSIS":"546.042","REF_FRAME":"TEME","APOAPSIS":"548.424","MEAN_ANOMALY":"281.2387","SITE":"AFETR","MEAN_ELEMENT_THEORY":"SGP4","COUNTRY_CODE":"US","ARG_OF_PERICENTER":"78.8795","RA_OF_ASC_NODE":"186.1727","MEAN_MOTION_DDOT":"0.0000000000000","FILE":"3215928","RCS_SIZE":"LARGE","CENTER_NAME":"EARTH","REV_AT_EPOCH":"6870","TLE_LINE2":"2 46173  53.0541 186.1727 0001720  78.8795 281.2387 15.06393722 68707","TLE_LINE1":"1 46173U 20057BJ  21319.89015414 -.00000393  00000-0 -74939-5 0  9997","TIME_SYSTEM":"UTC","OBJECT_ID":"2020-057BJ","LAUNCH_DATE":"2020-08-18","GP_ID":"189837843","EPOCH":"2021-11-15T21:21:49.317696","INCLINATION":"53.0541","OBJECT_TYPE":"PAYLOAD","BSTAR":"-0.00000749390000","ECCENTRICITY":"0.00017200","DECAY_DATE":null,"ELEMENT_SET_NO":"999"},{"LAUNCH_DATE":"2020-08-18","TIME_SYSTEM":"UTC","OBJECT_ID":"2020-057BK","TLE_LINE2":"2 46174  53.0544 186.1325 0001926  69.9440 290.1756 15.06402018 68709","TLE_LINE1":"1 46174U 20057BK  21319.89753101  .00001898  00000-0  14629-3 0  9997","CENTER_NAME":"EARTH","REV_AT_EPOCH":"6870","ECCENTRICITY":"0.00019260","DECAY_DATE":null,"ELEMENT_SET_NO":"999","INCLINATION":"53.0544","EPOCH":"2021-11-15T21:32:26.679264","OBJECT_TYPE":"PAYLOAD","BSTAR":"0.00014629000000","GP_ID":"189838095","REF_FRAME":"TEME","EPHEMERIS_TYPE":"0","OBJECT_NAME":"STARLINK-1641","PERIAPSIS":"545.874","MEAN_MOTION_DOT":"0.00001898","PERIOD":"95.592","CLASSIFICATION_TYPE":"U","NORAD_CAT_ID":"46174","SEMIMAJOR_AXIS":"6925.342","MEAN_MOTION":"15.06402018","RCS_SIZE":"LARGE","MEAN_MOTION_DDOT":"0.0000000000000","FILE":"3215928","MEAN_ANOMALY":"290.1756","SITE":"AFETR","MEAN_ELEMENT_THEORY":"SGP4","COUNTRY_CODE":"US","ARG_OF_PERICENTER":"69.9440","RA_OF_ASC_NODE":"186.1325","APOAPSIS":"548.541"},{"OBJECT_ID":"2020-062A","TIME_SYSTEM":"UTC","LAUNCH_DATE":"2020-09-03","REV_AT_EPOCH":"6818","CENTER_NAME":"EARTH","TLE_LINE1":"1 46325U 20062A   21319.84269985 -.00000692  00000-0 -27533-4 0  9990","TLE_LINE2":"2 46325  53.0542 201.3868 0001633  72.3599 287.7568 15.06391352 68188","BSTAR":"-0.00002753300000","OBJECT_TYPE":"PAYLOAD","EPOCH":"2021-11-15T20:13:29.267040","INCLINATION":"53.0542","ELEMENT_SET_NO":"999","DECAY_DATE":null,"ECCENTRICITY":"0.00016330","GP_ID":"189837605","PERIAPSIS":"546.109","EPHEMERIS_TYPE":"0","OBJECT_NAME":"STARLINK-1734","REF_FRAME":"TEME","MEAN_MOTION":"15.06391352","SEMIMAJOR_AXIS":"6925.375","CLASSIFICATION_TYPE":"U","PERIOD":"95.593","NORAD_CAT_ID":"46325","MEAN_MOTION_DOT":"-0.00000692","FILE":"3215928","MEAN_MOTION_DDOT":"0.0000000000000","RCS_SIZE":"LARGE","APOAPSIS":"548.371","RA_OF_ASC_NODE":"201.3868","ARG_OF_PERICENTER":"72.3599","COUNTRY_CODE":"US","MEAN_ANOMALY":"287.7568","SITE":"AFETR","MEAN_ELEMENT_THEORY":"SGP4"},{"GP_ID":"189837855","EPOCH":"2021-11-15T18:01:25.094496","INCLINATION":"53.0533","BSTAR":"-0.00002278900000","OBJECT_TYPE":"PAYLOAD","ELEMENT_SET_NO":"999","ECCENTRICITY":"0.00019660","DECAY_DATE":null,"REV_AT_EPOCH":"6693","CENTER_NAME":"EARTH","TLE_LINE2":"2 46326  53.0533 246.7906 0001966  61.8713 298.2475 15.06391390 66932","TLE_LINE1":"1 46326U 20062B   21319.75098489 -.00000621  00000-0 -22789-4 0  9990","TIME_SYSTEM":"UTC","OBJECT_ID":"2020-062B","LAUNCH_DATE":"2020-09-03","APOAPSIS":"548.601","ARG_OF_PERICENTER":"61.8713","RA_OF_ASC_NODE":"246.7906","SITE":"AFETR","MEAN_ANOMALY":"298.2475","MEAN_ELEMENT_THEORY":"SGP4","COUNTRY_CODE":"US","MEAN_MOTION_DDOT":"0.0000000000000","FILE":"3215928","RCS_SIZE":"LARGE","MEAN_MOTION":"15.06391390","SEMIMAJOR_AXIS":"6925.375","MEAN_MOTION_DOT":"-0.00000621","PERIOD":"95.593","NORAD_CAT_ID":"46326","CLASSIFICATION_TYPE":"U","PERIAPSIS":"545.878","OBJECT_NAME":"STARLINK-1654","EPHEMERIS_TYPE":"0","REF_FRAME":"TEME"},{"APOAPSIS":"548.347","RA_OF_ASC_NODE":"246.5985","ARG_OF_PERICENTER":"70.3959","COUNTRY_CODE":"US","SITE":"AFETR","MEAN_ANOMALY":"289.7206","MEAN_ELEMENT_THEORY":"SGP4","FILE":"3215928","MEAN_MOTION_DDOT":"0.0000000000000","RCS_SIZE":"LARGE","MEAN_MOTION":"15.06398623","SEMIMAJOR_AXIS":"6925.353","PERIOD":"95.592","NORAD_CAT_ID":"46327","CLASSIFICATION_TYPE":"U","MEAN_MOTION_DOT":"0.00001206","PERIAPSIS":"546.088","OBJECT_NAME":"STARLINK-1673","EPHEMERIS_TYPE":"0","REF_FRAME":"TEME","GP_ID":"189838107","OBJECT_TYPE":"PAYLOAD","BSTAR":"0.00009987500000","EPOCH":"2021-11-15T19:06:28.310400","INCLINATION":"53.0549","ELEMENT_SET_NO":"999","DECAY_DATE":null,"ECCENTRICITY":"0.00016310","REV_AT_EPOCH":"6693","CENTER_NAME":"EARTH","TLE_LINE1":"1 46327U 20062C   21319.79616100  .00001206  00000-0  99875-4 0  9999","TLE_LINE2":"2 46327  53.0549 246.5985 0001631  70.3959 289.7206 15.06398623 66934","OBJECT_ID":"2020-062C","TIME_SYSTEM":"UTC","LAUNCH_DATE":"2020-09-03"},{"APOAPSIS":"548.454","RA_OF_ASC_NODE":"226.3849","ARG_OF_PERICENTER":"76.6817","COUNTRY_CODE":"US","SITE":"AFETR","MEAN_ANOMALY":"283.4372","MEAN_ELEMENT_THEORY":"SGP4","FILE":"3215928","MEAN_MOTION_DDOT":"0.0000000000000","RCS_SIZE":"LARGE","MEAN_MOTION":"15.06400478","SEMIMAJOR_AXIS":"6925.347","NORAD_CAT_ID":"46328","PERIOD":"95.592","CLASSIFICATION_TYPE":"U","MEAN_MOTION_DOT":"-0.00000059","PERIAPSIS":"545.970","OBJECT_NAME":"STARLINK-1686","EPHEMERIS_TYPE":"0","REF_FRAME":"TEME","GP_ID":"189838358","OBJECT_TYPE":"PAYLOAD","BSTAR":"0.00001492700000","INCLINATION":"53.0545","EPOCH":"2021-11-15T20:12:48.691872","ELEMENT_SET_NO":"999","DECAY_DATE":null,"ECCENTRICITY":"0.00017930","REV_AT_EPOCH":"6722","CENTER_NAME":"EARTH","TLE_LINE1":"1 46328U 20062D   21319.84223023 -.00000059  00000-0  14927-4 0  9995","TLE_LINE2":"2 46328  53.0545 226.3849 0001793  76.6817 283.4372 15.06400478 67227","TIME_SYSTEM":"UTC","OBJECT_ID":"2020-062D","LAUNCH_DATE":"2020-09-03"},{"ELEMENT_SET_NO":"999","DECAY_DATE":null,"ECCENTRICITY":"0.00016970","OBJECT_TYPE":"PAYLOAD","BSTAR":"0.00011370000000","INCLINATION":"53.0545","EPOCH":"2021-11-15T17:49:29.659296","GP_ID":"189837106","LAUNCH_DATE":"2020-09-03","OBJECT_ID":"2020-062E","TIME_SYSTEM":"UTC","TLE_LINE1":"1 46329U 20062E   21319.74270439  .00001412  00000-0  11370-3 0  9999","TLE_LINE2":"2 46329  53.0545 226.8253 0001697  64.6283 295.4881 15.06402209 67209","REV_AT_EPOCH":"6720","CENTER_NAME":"EARTH","RCS_SIZE":"LARGE","FILE":"3215928","MEAN_MOTION_DDOT":"0.0000000000000","RA_OF_ASC_NODE":"226.8253","ARG_OF_PERICENTER":"64.6283","COUNTRY_CODE":"US","SITE":"AFETR","MEAN_ANOMALY":"295.4881","MEAN_ELEMENT_THEORY":"SGP4","APOAPSIS":"548.382","REF_FRAME":"TEME","PERIAPSIS":"546.032","EPHEMERIS_TYPE":"0","OBJECT_NAME":"STARLINK-1695","SEMIMAJOR_AXIS":"6925.342","CLASSIFICATION_TYPE":"U","PERIOD":"95.592","NORAD_CAT_ID":"46329","MEAN_MOTION_DOT":"0.00001412","MEAN_MOTION":"15.06402209"}];
